STARLINK-30796          
1 58189U 23167Q   26149.14775162  .00001206  00000+0  53369-4 0  9993
2 58189  43.0037  48.7075 0001303 272.6626  87.4076 15.27570035143295
STARLINK-30820          
1 58190U 23167R   26149.07850386  .00001401  00000+0  60440-4 0  9994
2 58190  43.0029  49.0475 0001131 287.9322  72.1406 15.27576966143283
STARLINK-30785          
1 58191U 23167S   26149.11576215  .00004892  00000+0  18712-3 0  9997
2 58191  43.0062  49.3281 0001566 262.7223  97.3451 15.27594368143287
STARLINK-30807          
1 58192U 23167T   26149.10805493  .00026044  00000+0  95183-3 0  9990
2 58192  43.0047  49.2713 0001288 271.8251  88.2453 15.27607026143280
STARLINK-30822          
1 58193U 23167U   26149.12604173 -.00000557  00000+0 -10694-4 0  9993
2 58193  43.0034  49.4039 0001563 325.4835  34.5915 15.27598163143288
STARLINK-30830          
1 58194U 23167V   26149.07975413  .00005471  00000+0  20797-3 0  9998
2 58194  43.0024  49.0381 0000562 283.5465  76.5324 15.27615026143283
STARLINK-30827          
1 58195U 23167W   26149.14132434  .00001000  00000+0  45869-4 0  9997
2 58195  43.0024  48.6641 0001275 271.3623  88.7082 15.27575636143290
STARLINK-30798          
1 58196U 23167X   26149.11962043  .00004127  00000+0  15943-3 0  9994
2 58196  43.0052  49.3574 0001837 264.8472  95.2170 15.27574764143289
STARLINK-30762          
1 58197U 23167Y   26149.06449705 -.00005624  00000+0 -19480-3 0  9999
2 58197  43.0034  49.7956 0003519 249.2098 110.8377 15.27599965143270
TIANHUI 5A              
1 58199U 23168A   26149.44427383  .00000532  00000+0  64566-4 0  9999
2 58199  97.8209 157.0831 0001550  89.4952 270.6442 14.87577755139815
TIANHUI 5B              
1 58201U 23168C   26149.44427541  .00000495  00000+0  60484-4 0  9992
2 58201  97.8206 157.0847 0001969  89.4676 270.6766 14.87577695139812
TJS-10                  
1 58204U 23169A   26149.73723845 -.00000239  00000+0  00000+0 0  9994
2 58204   2.4984  80.7056 0003563  97.0093  67.4209  1.00271490  9358
STARLINK-30800          
1 58206U 23170A   26149.23638550  .00001566  00000+0  66416-4 0  9992
2 58206  43.0050  99.7136 0001249 263.1410  96.9300 15.27575494142613
STARLINK-30845          
1 58207U 23170B   26149.31491995  .00033917  00000+0  22860-2 0  9990
2 58207  42.9984 116.4657 0000991 269.8824  90.1906 15.06091852142423
STARLINK-30841          
1 58208U 23170C   26149.29148303  .00000305  00000+0  20598-4 0  9993
2 58208  43.0051  99.2563 0001205 279.7266  80.3449 15.27574804142625
STARLINK-30839          
1 58209U 23170D   26149.24907936  .00000577  00000+0  30472-4 0  9997
2 58209  43.0046  98.9574 0000937 286.3085  73.7664 15.27579185142624
STARLINK-30846          
1 58210U 23170E   26149.24410664 -.00001472  00000+0 -43995-4 0  9997
2 58210  43.0061  99.7743 0000679 280.1373  79.9402 15.27561630142618
STARLINK-30838          
1 58211U 23170F   26149.19396889 -.00002092  00000+0 -66458-4 0  9992
2 58211  43.0048  99.3999 0002009 252.7946 107.2686 15.27597034142619
STARLINK-30837          
1 58212U 23170G   26149.24023974 -.00001229  00000+0 -35159-4 0  9996
2 58212  43.0048  99.7223 0000955 277.4104  82.6639 15.27566762142610
STARLINK-30813          
1 58213U 23170H   26149.26323324 -.00001732  00000+0 -53475-4 0  9991
2 58213  43.0013  99.0638 0000292 285.2485  74.8334 15.27565632142620
STARLINK-30805          
1 58214U 23170J   26149.25164613  .00001354  00000+0  58736-4 0  9998
2 58214  43.0047  98.9736 0002006 255.1993 104.8636 15.27578649142621
STARLINK-30851          
1 58215U 23170K   26149.19011514  .00001052  00000+0  47734-4 0  9994
2 58215  43.0032  99.3700 0001235 272.2370  87.8340 15.27580392142613
STARLINK-30818          
1 58217U 23170M   26149.26193001  .00002687  00000+0  10716-3 0  9990
2 58217  43.0026  99.0511 0001692 266.7216  93.3442 15.27578042142624
STARLINK-30794          
1 58218U 23170N   26149.25293426 -.00000588  00000+0 -11821-4 0  9991
2 58218  43.0053  98.9665 0002040 239.0882 120.9769 15.27588594142625
STARLINK-30835          
1 58219U 23170P   26149.27348833  .00046985  00000+0  17041-2 0  9994
2 58219  42.9996  99.1355 0001201 291.4009  68.6714 15.27618933142629
STARLINK-30792          
1 58220U 23170Q   26149.22506537  .00022727  00000+0  14949-2 0  9990
2 58220  42.9984 115.7913 0004512 130.0980 230.0260 15.07159314142427
STARLINK-30836          
1 58221U 23170R   26149.21453483 -.00000131  00000+0  47417-5 0  9996
2 58221  42.9989  99.5509 0001011 268.2158  91.8578 15.27573684142613
STARLINK-30855          
1 58222U 23170S   26149.22994882  .00000596  00000+0  31174-4 0  9997
2 58222  43.0020  99.6455 0001538 261.9251  98.1426 15.27579386142618
STARLINK-30840          
1 58223U 23170T   26149.23380443  .00000123  00000+0  13984-4 0  9996
2 58223  43.0039  99.6739 0001137 255.1041 104.9685 15.27574514142612
STARLINK-30875          
1 58224U 23170U   26147.95032361 -.00018902  00000+0 -67925-3 0  9996
2 58224  43.0014 106.3880 0001541 267.0821  92.9854 15.27572660142429
STARLINK-30872          
1 58225U 23170V   26149.47705322  .00001995  00000+0  82014-4 0  9999
2 58225  43.0028 316.0687 0001191 271.4117  88.6598 15.27576999144325
STARLINK-30865          
1 58226U 23170W   26149.26069112 -.00003079  00000+0 -10242-3 0  9997
2 58226  43.0026  87.9882 0001795 257.4526 102.6125 15.27574986142755
STARLINK-30874          
1 58227U 23170X   26149.34915893  .00000583  00000+0  30726-4 0  9998
2 58227  43.0024  98.8330 0001167 263.4598  96.6121 15.27577379142636
STARLINK-30871          
1 58228U 23170Y   26149.28763372 -.00000115  00000+0  53391-5 0  9991
2 58228  43.0027  99.2240 0000586 227.4837 132.5965 15.27567223142627
STARLINK-30861          
1 58230U 23171A   26149.18794778  .00047013  00000+0  16546-2 0  9993
2 58230  42.9917 191.6262 0004962  26.1370 333.9731 15.28594073142032
STARLINK-30867          
1 58231U 23171B   26149.47751264 -.00001150  00000+0 -32272-4 0  9999
2 58231  43.0037 188.6782 0001292 266.5407  93.5296 15.27588560142099
STARLINK-30880          
1 58232U 23171C   26149.47366913 -.00014062  00000+0 -50364-3 0  9990
2 58232  42.9992 188.6481 0000589 240.4274 119.6519 15.27503849142090
STARLINK-30777          
1 58233U 23171D   26149.52762529  .00003010  00000+0  11886-3 0  9995
2 58233  42.9997 189.0448 0001447 275.7379  84.3307 15.27585328142090
STARLINK-30860          
1 58234U 23171E   26149.53518906  .00002258  00000+0  91541-4 0  9995
2 58234  43.0007 188.2489 0001207 275.4726  84.5987 15.27583563142105
STARLINK-30853          
1 58236U 23171G   26149.13143249  .00007659  00000+0  28730-3 0  9996
2 58236  43.0011 191.2326 0001970 273.4455  86.6171 15.27609608142039
STARLINK-30866          
1 58237U 23171H   26149.49550663  .00008933  00000+0  33345-3 0  9992
2 58237  43.0040 188.7983 0001861 267.8086  92.2553 15.27609070142094
STARLINK-30817          
1 58238U 23171J   26149.45452712  .00003417  00000+0  13365-3 0  9997
2 58238  43.0000 189.3509 0001469 269.5638  90.5045 15.27580089142082
STARLINK-30847          
1 58239U 23171K   26149.51606187  .00003026  00000+0  11944-3 0  9999
2 58239  43.0010 188.9591 0001811 271.0681  88.9963 15.27581533142093
STARLINK-30848          
1 58240U 23171L   26149.49678192  .00001441  00000+0  61876-4 0  9992
2 58240  43.0029 188.8004 0001570 267.7184  92.3488 15.27579515142093
STARLINK-30843          
1 58241U 23171M   26149.25065754  .00001245  00000+0  54758-4 0  9994
2 58241  43.0024 190.3922 0001644 269.7345  90.3319 15.27579108142076
STARLINK-30877          
1 58242U 23171N   26149.16471527  .00001547  00000+0  65737-4 0  9998
2 58242  43.0042 190.6100 0001751 275.5626  84.5026 15.27579807142047
STARLINK-30864          
1 58243U 23171P   26149.50577910  .00001517  00000+0  64637-4 0  9995
2 58243  43.0038 188.8839 0001666 268.1012  91.9649 15.27580470141997
STARLINK-30854          
1 58244U 23171Q   26149.18270356  .00002314  00000+0  93605-4 0  9997
2 58244  43.0026 190.7520 0001923 269.2320  90.8311 15.27579212142047
STARLINK-30849          
1 58245U 23171R   26149.10960694  .00001689  00000+0  70888-4 0  9993
2 58245  43.0042 191.0610 0001990 274.7115  85.3509 15.27586014142032
STARLINK-30886          
1 58246U 23171S   26149.16728406  .00000912  00000+0  42678-4 0  9997
2 58246  43.0035 190.6389 0001484 274.8908  85.1774 15.27576370142049
STARLINK-30850          
1 58247U 23171T   26149.17113898  .00001121  00000+0  50256-4 0  9996
2 58247  43.0033 190.6654 0001659 274.7163  85.3500 15.27577197142046
STARLINK-30823          
1 58248U 23171U   26149.17629524 -.00001623  00000+0 -49486-4 0  9997
2 58248  43.0039 190.7004 0001438 253.2756 106.7938 15.27563220142043
STARLINK-30873          
1 58249U 23171V   26149.49935637  .00003216  00000+0  12631-3 0  9997
2 58249  43.0021 188.8251 0001529 269.0277  91.0399 15.27585063142092
STARLINK-30808          
1 58250U 23171W   26149.51626730  .00012671  00000+0  46465-3 0  9990
2 58250  43.0002 188.9344 0001836 275.7784  84.2858 15.27900839142091
STARLINK-30881          
1 58251U 23171X   26149.50704914  .00001798  00000+0  74859-4 0  9998
2 58251  43.0013 188.7994 0001870 266.5704  93.4934 15.27581168142098
STARLINK-30883          
1 58252U 23171Y   26149.48779356  .00001633  00000+0  68877-4 0  9999
2 58252  43.0045 188.7375 0001607 270.3549  89.7118 15.27579712142099
ZHONGXING-6E            
1 58253U 23172A   26149.61155927 -.00000350  00000+0  00000+0 0  9993
2 58253   0.0166 274.1115 0002654 155.8238 152.8637  1.00275635  9479
ORBASTRO-PC-1           
1 58258U 23174C   26149.58336986  .00031351  00000+0  60464-3 0  9990
2 58258  97.3783 235.2332 0005654 224.5417 135.5380 15.47768561142598
LEMUR-2-BASS            
1 58259U 23174D   26149.46552794  .00021663  00000+0  50237-3 0  9997
2 58259  97.3852 233.9259 0006268 226.0190 134.0541 15.42404580142479
